[{"OBJECT_NAME":"STARLINK-2623","OBJECT_ID":"2021-038R","EPOCH":"2026-03-09T22:14:04.667424","MEAN_MOTION":15.30184624,"ECCENTRICITY":0.00015347,"INCLINATION":53.1573,"RA_OF_ASC_NODE":346.6863,"ARG_OF_PERICENTER":121.9928,"MEAN_ANOMALY":238.1222,"EPHEMERIS_TYPE":0,"CLASSIFICATION_TYPE":"U","NORAD_CAT_ID":48368,"ELEMENT_SET_NO":999,"REV_AT_EPOCH":26726,"BSTAR":0.00020704729,"MEAN_MOTION_DOT":5.775e-5,"MEAN_MOTION_DDOT":0},{"OBJECT_NAME":"COSMOS 1953","OBJECT_ID":"1988-050A","EPOCH":"2026-03-09T18:09:26.993952","MEAN_MOTION":15.28528086,"ECCENTRICITY":0.00124769,"INCLINATION":82.5105,"RA_OF_ASC_NODE":158.18,"ARG_OF_PERICENTER":122.2454,"MEAN_ANOMALY":237.9996,"EPHEMERIS_TYPE":0,"CLASSIFICATION_TYPE":"U","NORAD_CAT_ID":19210,"ELEMENT_SET_NO":999,"REV_AT_EPOCH":3779,"BSTAR":0.00029210954,"MEAN_MOTION_DOT":8.158e-5,"MEAN_MOTION_DDOT":0}]
